[{"OBJECT_NAME":"STARLINK-5129","OBJECT_ID":"2022-125AS","EPOCH":"2026-03-09T16:00:51.698592","MEAN_MOTION":15.08841133,"ECCENTRICITY":0.00012676,"INCLINATION":53.2163,"RA_OF_ASC_NODE":213.9052,"ARG_OF_PERICENTER":84.1601,"MEAN_ANOMALY":275.9536,"EPHEMERIS_TYPE":0,"CLASSIFICATION_TYPE":"U","NORAD_CAT_ID":54004,"ELEMENT_SET_NO":999,"REV_AT_EPOCH":18946,"BSTAR":2.1352404e-5,"MEAN_MOTION_DOT":5.2e-7,"MEAN_MOTION_DDOT":0},{"OBJECT_NAME":"H-2A R\/B","OBJECT_ID":"2009-002J","EPOCH":"2026-03-09T23:38:52.170720","MEAN_MOTION":15.01829324,"ECCENTRICITY":0.00333022,"INCLINATION":98.2328,"RA_OF_ASC_NODE":87.9691,"ARG_OF_PERICENTER":111.7239,"MEAN_ANOMALY":248.7534,"EPHEMERIS_TYPE":0,"CLASSIFICATION_TYPE":"U","NORAD_CAT_ID":33500,"ELEMENT_SET_NO":999,"REV_AT_EPOCH":92943,"BSTAR":0.00033449169,"MEAN_MOTION_DOT":4.347e-5,"MEAN_MOTION_DDOT":0}]
